$$SOE
2460721.500000000, A.D. 2025-Feb-15 00:00:00.0000, 2.759192933373283E+08, 3.752330482806612E+08, 6.136046964335555E+07,
2460728.500000000, A.D. 2025-Feb-22 00:00:00.0000, 2.676598562882017E+08, 3.806771001503149E+08, 6.256006712505412E+07,
2460735.500000000, A.D. 2025-Mar-01 00:00:00.0000, 2.592748030250909E+08, 3.859427921414693E+08, 6.373028534914643E+07,
2460742.500000000, A.D. 2025-Mar-08 00:00:00.0000, 2.507678727252713E+08, 3.910273708434620E+08, 6.487052590668391E+07,
2460749.500000000, A.D. 2025-Mar-15 00:00:00.0000, 2.421428686687139E+08, 3.959281512866526E+08, 6.598020093983708E+07,
2460756.500000000, A.D. 2025-Mar-22 00:00:00.0000, 2.334036552492197E+08, 4.006425187101884E+08, 6.705873365333089E+07,
2460763.500000000, A.D. 2025-Mar-29 00:00:00.0000, 2.245541563277975E+08, 4.051679280890034E+08, 6.810555852077457E+07,
2460770.500000000, A.D. 2025-Apr-05 00:00:00.0000, 2.155983552538276E+08, 4.095019045587200E+08, 6.912012141240373E+07,
2460777.500000000, A.D. 2025-Apr-12 00:00:00.0000, 2.065402946263416E+08, 4.136420448410236E+08, 7.010187982872683E+07,
2460784.500000000, A.D. 2025-Apr-19 00:00:00.0000, 1.973840756060192E+08, 4.175860187876644E+08, 7.105030318480864E+07,
2460791.500000000, A.D. 2025-Apr-26 00:00:00.0000, 1.881338570477987E+08, 4.213315708400154E+08, 7.196487310341522E+07,
2460798.500000000, A.D. 2025-May-03 00:00:00.0000, 1.787938545661752E+08, 4.248765214232650E+08, 7.284508370791817E+07,
2460805.500000000, A.D. 2025-May-10 00:00:00.0000, 1.693683395601699E+08, 4.282187682836325E+08, 7.369044191281044E+07,
2460812.500000000, A.D. 2025-May-17 00:00:00.0000, 1.598616382330227E+08, 4.313562877271606E+08, 7.450046770490038E+07,
2460819.500000000, A.D. 2025-May-24 00:00:00.0000, 1.502781307787598E+08, 4.342871357052044E+08, 7.527469439463478E+07,
2460826.500000000, A.D. 2025-May-31 00:00:00.0000, 1.406222511517664E+08, 4.370094490575410E+08, 7.601266882464358E+07,
2460833.500000000, A.D. 2025-Jun-07 00:00:00.0000, 1.308984870176292E+08, 4.395214481177890E+08, 7.671395167074698E+07,
2460840.500000000, A.D. 2025-Jun-14 00:00:00.0000, 1.211113775196965E+08, 4.418214400117195E+08, 7.737811799716148E+07,
2460847.500000000, A.D. 2025-Jun-21 00:00:00.0000, 1.112655100744153E+08, 4.439078193745524E+08, 7.800475768643177E+07,
2460854.500000000, A.D. 2025-Jun-28 00:00:00.0000, 1.013655193214480E+08, 4.457790682534388E+08, 7.859347560196608E+07,
2460861.500000000, A.D. 2025-Jul-05 00:00:00.0000, 9.141608671182376E+07, 4.474337573513318E+08, 7.914389179852515E+07,
2460868.500000000, A.D. 2025-Jul-12 00:00:00.0000, 8.142193954163919E+07, 4.488705478045906E+08, 7.965564182358837E+07,
2460875.500000000, A.D. 2025-Jul-19 00:00:00.0000, 7.138784961879700E+07, 4.500881929175376E+08, 8.012837704493216E+07,
2460882.500000000, A.D. 2025-Jul-26 00:00:00.0000, 6.131863177086359E+07, 4.510855397961435E+08, 8.056176498039901E+07,
2460889.500000000, A.D. 2025-Aug-02 00:00:00.0000, 5.121914225776541E+07, 4.518615309012954E+08, 8.095548962552172E+07,
2460896.500000000, A.D. 2025-Aug-09 00:00:00.0000, 4.109427711120093E+07, 4.524152055058413E+08, 8.130925177557975E+07,
2460903.500000000, A.D. 2025-Aug-16 00:00:00.0000, 3.094897047632694E+07, 4.527457009909967E+08, 8.162276932980162E+07,
2460910.500000000, A.D. 2025-Aug-23 00:00:00.0000, 2.078819324714588E+07, 4.528522539973482E+08, 8.189577755215934E+07,
2460917.500000000, A.D. 2025-Aug-30 00:00:00.0000, 1.061695232366733E+07, 4.527342021433924E+08, 8.212802931687897E+07,
2460924.500000000, A.D. 2025-Sep-06 00:00:00.0000, 4.402890730506775E+05, 4.523909873103306E+08, 8.231929555013672E+07,
2460931.500000000, A.D. 2025-Sep-13 00:00:00.0000, -9.736724675497830E+06, 4.518221580049471E+08, 8.246936581680697E+07,
2460938.500000000, A.D. 2025-Sep-20 00:00:00.0000, -1.990898983210666E+07, 4.510273691501124E+08, 8.257804861629009E+07,
2460945.500000000, A.D. 2025-Sep-27 00:00:00.0000, -3.007138138886952E+07, 4.500063824136347E+08, 8.264517154469877E+07,
2460952.500000000, A.D. 2025-Oct-04 00:00:00.0000, -4.021874992164853E+07, 4.487590676139770E+08, 8.267058155249026E+07,
2460959.500000000, A.D. 2025-Oct-11 00:00:00.0000, -5.034592362592770E+07, 4.472854042582203E+08, 8.265414525467926E+07,
2460966.500000000, A.D. 2025-Oct-18 00:00:00.0000, -6.044771060379619E+07, 4.455854829368420E+08, 8.259574924520403E+07,
2460973.500000000, A.D. 2025-Oct-25 00:00:00.0000, -7.051890126246269E+07, 4.436595065851131E+08, 8.249530040327901E+07,
2460980.500000000, A.D. 2025-Nov-01 00:00:00.0000, -8.055427078450748E+07, 4.415077916246611E+08, 8.235272618871787E+07,
2460987.500000000, A.D. 2025-Nov-08 00:00:00.0000, -9.054858163507943E+07, 4.391307689512037E+08, 8.216797491956154E+07,
2460994.500000000, A.D. 2025-Nov-15 00:00:00.0000, -1.004965859581575E+08, 4.365289847069676E+08, 8.194101601264030E+07,
2461001.500000000, A.D. 2025-Nov-22 00:00:00.0000, -1.103930274594709E+08, 4.337031010549437E+08, 8.167184016717380E+07,
2461008.500000000, A.D. 2025-Nov-29 00:00:00.0000, -1.202326429298183E+08, 4.306538980878654E+08, 8.136045959755468E+07,
2461015.500000000, A.D. 2025-Dec-06 00:00:00.0000, -1.300101656855148E+08, 4.273822767346085E+08, 8.100690851254305E+07,
2461022.500000000, A.D. 2025-Dec-13 00:00:00.0000, -1.397203304900028E+08, 4.238892592893290E+08, 8.061124352434525E+07,
2461029.500000000, A.D. 2025-Dec-20 00:00:00.0000, -1.493578764638603E+08, 4.201759885811451E+08, 8.017354374973935E+07,
2461036.500000000, A.D. 2025-Dec-27 00:00:00.0000, -1.589175490576484E+08, 4.162437283748689E+08, 7.969391091353083E+07,
2461043.500000000, A.D. 2026-Jan-03 00:00:00.0000, -1.683941025446073E+08, 4.120938643857374E+08, 7.917246953737161E+07,
2461050.500000000, A.D. 2026-Jan-10 00:00:00.0000, -1.777823029210961E+08, 4.077279052256230E+08, 7.860936714743403E+07,
2461057.500000000, A.D. 2026-Jan-17 00:00:00.0000, -1.870769309804327E+08, 4.031474831853921E+08, 7.800477447121057E+07,
2461064.500000000, A.D. 2026-Jan-24 00:00:00.0000, -1.962727854806076E+08, 3.983543548724943E+08, 7.735888561733423E+07,
2461071.500000000, A.D. 2026-Jan-31 00:00:00.0000, -2.053646863809960E+08, 3.933504016929278E+08, 7.667191823497678E+07,
2461078.500000000, A.D. 2026-Feb-07 00:00:00.0000, -2.143474780852478E+08, 3.881376301170040E+08, 7.594411364200859E+07,
2461085.500000000, A.D. 2026-Feb-14 00:00:00.0000, -2.232160324359880E+08, 3.827181717106390E+08, 7.517573689717136E+07,
2461092.500000000, A.D. 2026-Feb-21 00:00:00.0000, -2.319652510724927E+08, 3.770942835064942E+08, 7.436707682777283E+07,
2461099.500000000, A.D. 2026-Feb-28 00:00:00.0000, -2.405900682351746E+08, 3.712683498666861E+08, 7.351844620682123E+07,
2461106.500000000, A.D. 2026-Mar-07 00:00:00.0000, -2.490854560729524E+08, 3.652428838862943E+08, 7.263018210914184E+07,
2461113.500000000, A.D. 2026-Mar-14 00:00:00.0000, -2.574464296725692E+08, 3.590205260008156E+08, 7.170264600041646E+07,
2461120.500000000, A.D. 2026-Mar-21 00:00:00.0000, -2.656680500243577E+08, 3.526040426895733E+08, 7.073622363170250E+07,
2461127.500000000, A.D. 2026-Mar-28 00:00:00.0000, -2.737454269328641E+08, 3.459963263016628E+08, 6.973132500786580E+07,
2461134.500000000, A.D. 2026-Apr-04 00:00:00.0000, -2.816737224726760E+08, 3.392003950368755E+08, 6.868838440613239E+07,
2461141.500000000, A.D. 2026-Apr-11 00:00:00.0000, -2.894481547115738E+08, 3.322193927181262E+08, 6.760786038968211E+07,
2461148.500000000, A.D. 2026-Apr-18 00:00:00.0000, -2.970640015381455E+08, 3.250565883451155E+08, 6.649023580069366E+07,
2461155.500000000, A.D. 2026-Apr-25 00:00:00.0000, -3.045166045444302E+08, 3.177153754409143E+08, 6.533601772951585E+07,
2461162.500000000, A.D. 2026-May-02 00:00:00.0000, -3.118013729288505E+08, 3.101992711593404E+08, 6.414573745441100E+07,
2461169.500000000, A.D. 2026-May-09 00:00:00.0000, -3.189137872899857E+08, 3.025119150846828E+08, 6.291995033458610E+07,
2461176.500000000, A.D. 2026-May-16 00:00:00.0000, -3.258494029273140E+08, 2.946570678596340E+08, 6.165923563243403E+07,
2461183.500000000, A.D. 2026-May-23 00:00:00.0000, -3.326038525906515E+08, 2.866386106604493E+08, 6.036419634278731E+07,
2461190.500000000, A.D. 2026-May-30 00:00:00.0000, -3.391728507513728E+08, 2.784605458353311E+08, 5.903545924500507E+07,
2461197.500000000, A.D. 2026-Jun-06 00:00:00.0000, -3.455521997076389E+08, 2.701269954299342E+08, 5.767367493876563E+07,
2461204.500000000, A.D. 2026-Jun-13 00:00:00.0000, -3.517377938509443E+08, 2.616421977948370E+08, 5.627951754274401E+07,
2461211.500000000, A.D. 2026-Jun-20 00:00:00.0000, -3.577256225915034E+08, 2.530105051966901E+08, 5.485368434088281E+07,
2461218.500000000, A.D. 2026-Jun-27 00:00:00.0000, -3.635117736396173E+08, 2.442363820935136E+08, 5.339689550449076E+07,
2461225.500000000, A.D. 2026-Jul-04 00:00:00.0000, -3.690924366388515E+08, 2.353244033012498E+08, 5.190989382668522E+07,
2461232.500000000, A.D. 2026-Jul-11 00:00:00.0000, -3.744639068905590E+08, 2.262792519202206E+08, 5.039344443443753E+07,
2461239.500000000, A.D. 2026-Jul-18 00:00:00.0000, -3.796225890701111E+08, 2.171057170467846E+08, 4.884833447100838E+07,
2461246.500000000, A.D. 2026-Jul-25 00:00:00.0000, -3.845650009035980E+08, 2.078086912722518E+08, 4.727537274602321E+07,
2461253.500000000, A.D. 2026-Aug-01 00:00:00.0000, -3.892877767502183E+08, 1.983931679204278E+08, 4.567538934425081E+07,
2461260.500000000, A.D. 2026-Aug-08 00:00:00.0000, -3.937876708687835E+08, 1.888642379876980E+08, 4.404923517000355E+07,
2461267.500000000, A.D. 2026-Aug-15 00:00:00.0000, -3.980615599465008E+08, 1.792270872360583E+08, 4.239778142558603E+07,
2461274.500000000, A.D. 2026-Aug-22 00:00:00.0000, -4.021064456446512E+08, 1.694869946604820E+08, 4.072191919322436E+07,
2461281.500000000, A.D. 2026-Aug-29 00:00:00.0000, -4.059194594454061E+08, 1.596493309589926E+08, 3.902255921830565E+07,
2461288.500000000, A.D. 2026-Sep-05 00:00:00.0000, -4.094978676607184E+08, 1.497195541405575E+08, 3.730063146404032E+07,
$$EOE